RADFXSAT (FOX-1B)       
1 43017U 17073E   26068.59518419  .00011352  00000+0  51457-3 0  9993
2 43017  97.4852 297.8938 0154575 312.4525  46.3719 15.10873817450344
AEROCUBE 16A            
1 59290U 24053C   26068.52355550  .00017693  00000+0  43507-3 0  9998
2 59290  49.9887 110.3791 0003842 297.8088  62.2484 15.40652986105720
