[{"OBJECT_NAME":"RADFXSAT (FOX-1B)","OBJECT_ID":"2017-073E","EPOCH":"2026-03-09T14:17:03.914016","MEAN_MOTION":15.10873817,"ECCENTRICITY":0.0154575,"INCLINATION":97.4852,"RA_OF_ASC_NODE":297.8938,"ARG_OF_PERICENTER":312.4525,"MEAN_ANOMALY":46.3719,"EPHEMERIS_TYPE":0,"CLASSIFICATION_TYPE":"U","NORAD_CAT_ID":43017,"ELEMENT_SET_NO":999,"REV_AT_EPOCH":45034,"BSTAR":0.00051457,"MEAN_MOTION_DOT":0.00011352,"MEAN_MOTION_DDOT":0},{"OBJECT_NAME":"AEROCUBE 16A","OBJECT_ID":"2024-053C","EPOCH":"2026-03-09T12:33:55.195200","MEAN_MOTION":15.40652986,"ECCENTRICITY":0.0003842,"INCLINATION":49.9887,"RA_OF_ASC_NODE":110.3791,"ARG_OF_PERICENTER":297.8088,"MEAN_ANOMALY":62.2484,"EPHEMERIS_TYPE":0,"CLASSIFICATION_TYPE":"U","NORAD_CAT_ID":59290,"ELEMENT_SET_NO":999,"REV_AT_EPOCH":10572,"BSTAR":0.00043507,"MEAN_MOTION_DOT":0.00017693,"MEAN_MOTION_DDOT":0}]
